TDRS 3                  
1 19548U 88091B   26181.79070583 -.00000291  00000+0  00000+0 0  9991
2 19548  12.5913 340.9097 0037226 356.7189 177.0046  1.00269185125523
FLTSATCOM 8 (USA 46)    
1 20253U 89077A   26181.39749484 -.00000361  00000+0  00000+0 0  9998
2 20253  12.4177 351.0837 0003775  61.7194 134.5245  1.00270675260698
SKYNET 4C               
1 20776U 90079A   26162.20198486  .00000132  00000+0  00000+0 0  9996
2 20776  13.3424 349.8525 0002400  96.2313 279.5534  1.00274127130831
TDRS 5                  
1 21639U 91054B   26181.69587236  .00000089  00000+0  00000+0 0  9999
2 21639  14.0692 353.6766 0006416 260.1131 107.8620  1.00268942127851
TDRS 6                  
1 22314U 93003B   26182.19248927 -.00000290  00000+0  00000+0 0  9998
2 22314  14.1829 356.9541 0008722 180.2380 125.3498  1.00266242122542
UFO 2 (USA 95)          
1 22787U 93056A   26182.16243560  .00000131  00000+0  00000+0 0  9998
2 22787  11.8995   3.4772 0004286   8.7542 354.1150  1.00275328118692
USA 99 (MILSTAR-1 1)    
1 22988U 94009A   26181.50146067 -.00000116  00000+0  00000+0 0  9995
2 22988  17.6455  27.5666 0000878 181.8507 180.4144  0.98722253 33088
UFO 4 (USA 108)         
1 23467U 95003A   26181.76319060 -.00000016  00000+0  00000+0 0  9995
2 23467   9.6876  13.1389 0002937  82.7711 269.8831  1.00274208115088
TDRS 7                  
1 23613U 95035B   26181.96055410 -.00000234  00000+0  00000+0 0  9993
2 23613  13.3714 348.0947 0011718  82.7421 283.0703  1.00277653113394
USA 115 (MILSTAR-1 2)   
1 23712U 95060A   26180.49930475 -.00000209  00000+0  00000+0 0  9993
2 23712  14.0768   3.6553 0002402 138.2694 225.2498  1.00363709 33014
INMARSAT 3-F1           
1 23839U 96020A   26182.13505668 -.00000022  00000+0  00000+0 0  9998
2 23839  10.6293  46.5051 0003944  71.6889  99.6874  0.99978140110392
INMARSAT 3-F2           
1 24307U 96053A   26181.95469573 -.00000332  00000+0  00000+0 0  9992
2 24307   9.8872  53.7955 0006431  41.9639 302.8885  0.99998599109058
INMARSAT 3-F3           
1 24674U 96070A   26181.84072557  .00000117  00000+0  00000+0 0  9998
2 24674  10.3469  49.5216 0003290  54.7239 145.7482  0.99988999108043
USA 134                 
1 25019U 97065A   26182.13445000 -.00000058  00000+0  00000+0 0  9992
2 25019  12.7997  21.6151 0002672 348.0157 205.5339  1.00271163 33098
INMARSAT 3-F5           
1 25153U 98006B   26182.10378512 -.00000286  00000+0  00000+0 0  9990
2 25153   9.7224  53.1199 0004275  45.0715 164.3657  1.00271204104037
ABS-6                   
1 25924U 99053A   26182.19141894 -.00000109  00000+0  00000+0 0  9993
2 25924   0.0467 275.4284 0003022 162.3728  69.3504  1.00271932 97984
UFO 10 (USA 146)        
1 25967U 99063A   26180.37000920 -.00000185  00000+0  00000+0 0  9997
2 25967   9.8449  27.1462 0001552  73.9701 286.4977  1.00268568 97462
ASIASTAR                
1 26107U 00016A   26182.10631102 -.00000329  00000+0  00000+0 0  9999
2 26107   9.1601  58.0039 0004557  41.0604 323.3860  1.00270516 96064
USA 149 (DSP 20)        
1 26356U 00024A   26182.19905875  .00000100  00000+0  00000+0 0  9990
2 26356  13.1803  11.7494 0001361 319.3198 214.7623  1.00281742 33052
TDRS 8                  
1 26388U 00034A   26182.10223766 -.00000192  00000+0  00000+0 0  9991
2 26388  12.7051  31.2027 0004591  26.2700 343.2724  1.00275026 95323
NSS-11                  
1 26554U 00059A   26182.12041800  .00000034  00000+0  00000+0 0  9996
2 26554   2.1608  81.2373 0003149  14.7618  42.5255  1.00271316 41435
USA 153                 
1 26575U 00065A   26181.47055027 -.00000323  00000+0  00000+0 0  9991
2 26575  11.6465  35.3089 0003035  54.5579 132.3965  1.00267599 33064
AMC-6                   
1 26580U 00067A   26182.21642161  .00000098  00000+0  00000+0 0  9991
2 26580   0.1863  83.4436 0004047  28.4372 110.2797  1.00274246 94039
USA 157 (MILSTAR-2 2)   
1 26715U 01009A   26182.19350405  .00000114  00000+0  00000+0 0  9991
2 26715  11.5571  19.6737 0039861 178.1803   1.0074  1.00269237 33087
INTELSAT 902 (IS-902)   
1 26900U 01039A   26181.50527403 -.00000277  00000+0  00000+0 0  9999
2 26900   6.1497  71.6208 0004210  28.0626 310.6671  1.00270084 90826
USA 164 (MILSTAR-2 3)   
1 27168U 02001A   26180.82961494  .00000101  00000+0  00000+0 0  9997
2 27168  11.1939  21.8279 0099417   8.8560 204.7984  1.00272159 33081
INTELSAT 904 (IS-904)   
1 27380U 02007A   26182.00796248 -.00000220  00000+0  00000+0 0  9997
2 27380   6.9525  69.0196 0006383  14.6489 166.7873  1.00271966 51907
DIRECTV 5 (TEMPO 1)     
1 27426U 02023A   26182.18169632 -.00000050  00000+0  00000+0 0  9997
2 27426   4.9116  75.1401 0003553  32.5313 126.8727  1.00271759 88264
INTELSAT 905 (IS-905)   
1 27438U 02027A   26181.77324398  .00000099  00000+0  00000+0 0  9992
2 27438   6.7857  69.6375 0004048  31.2679 319.0932  1.00271993 51497
GALAXY 3C (G-3C)        
1 27445U 02030A   26181.59529704 -.00000145  00000+0  00000+0 0  9995
2 27445   3.7656  77.8074 0001970  27.2183 293.1133  1.00272227 46627
INTELSAT 906 (IS-906)   
1 27513U 02041A   26182.16954230  .00000019  00000+0  00000+0 0  9992
2 27513   5.8372  72.7492 0004125  11.5719 320.0914  1.00273045 87165
